ONEWEB-0721             
1 56725U 23068R   26188.11390145  .00000107  00000+0  22136-3 0  9997
2 56725  86.6755  79.1560 0001796  78.7181 281.4154 13.22471018160570
ONEWEB-0015             
1 61594U 24188A   26187.99403216  .00000139  00000+0  35624-3 0  9991
2 61594  87.8876  17.1483 0001714  72.7623 287.3693 13.11414578 87058
ONEWEB-0687             
1 61595U 24188B   26187.89825178  .00000011  00000+0 -40489-5 0  9993
2 61595  87.9131   1.9538 0002159  79.4610 280.6765 13.17649613 88491
ONEWEB-0688             
1 61596U 24188C   26188.45848232  .00000056  00000+0  11137-3 0  9997
2 61596  87.9131   1.8422 0001653  51.3466 308.7813 13.17649886 88565
ONEWEB-0689             
1 61597U 24188D   26188.48571368 -.00000351  00000+0 -10266-2 0  9995
2 61597  87.8893  17.0115 0002142  86.5309 273.6064 13.11417682 87117
ONEWEB-0690             
1 61598U 24188E   26188.49589813  .00000094  00000+0  22937-3 0  9992
2 61598  87.8890  17.0201 0001356 103.7819 256.3460 13.11418051 87293
ONEWEB-0691             
1 61599U 24188F   26188.49080668 -.00000106  00000+0 -33404-3 0  9994
2 61599  87.8900  16.9318 0001849  76.4137 283.7197 13.11417247 87140
ONEWEB-0692             
1 61600U 24188G   26187.97708585  .00000564  00000+0  15563-2 0  9995
2 61600  87.8879  17.1434 0002518 101.1487 258.9924 13.11417365 87062
ONEWEB-0693             
1 61601U 24188H   26188.47030360  .00000054  00000+0  10534-3 0  9999
2 61601  87.9131   1.8586 0001167 106.5379 253.5881 13.17649630 88557
ONEWEB-0695             
1 61602U 24188J   26188.48741576 -.00000236  00000+0 -70183-3 0  9999
2 61602  87.8880  17.0339 0002366  91.3193 268.8206 13.11417795 87121
ONEWEB-0697             
1 61603U 24188K   26187.98556337  .00000438  00000+0  11995-2 0  9990
2 61603  87.8879  17.1241 0002443 102.9179 257.2222 13.11415139 87043
ONEWEB-0698             
1 61604U 24188L   26188.49759597  .00000211  00000+0  55982-3 0  9995
2 61604  87.8879  17.0359 0002083 122.5078 237.6252 13.11418207 87133
ONEWEB-0699             
1 61605U 24188M   26187.99182698 -.00000602  00000+0 -17597-2 0  9997
2 61605  87.8823  32.3198 0002216 101.3784 258.7592 13.10371878 85906
ONEWEB-0700             
1 61606U 24188N   26187.99352213 -.00000292  00000+0 -87188-3 0  9999
2 61606  87.8840  32.2316 0002389  95.0134 265.1266 13.10374387 85892
ONEWEB-0701             
1 61607U 24188P   26188.01051954  .00000523  00000+0  14610-2 0  9996
2 61607  87.8823  32.3158 0002365 104.0289 256.1102 13.10374676 85907
ONEWEB-0702             
1 61608U 24188Q   26187.93299165 -.00000463  00000+0 -13422-2 0  9990
2 61608  87.8897  17.0578 0002779 100.7709 259.3732 13.11415163 87076
ONEWEB-0704             
1 61609U 24188R   26187.99861588 -.00000026  00000+0 -11156-3 0  9999
2 61609  87.8828  32.3082 0002797  96.3428 263.8018 13.10374673 85882
ONEWEB-0705             
1 61610U 24188S   26188.00372571  .00000253  00000+0  68848-3 0  9993
2 61610  87.8829  32.3130 0002828  80.3111 279.8336 13.10376001 78054
ONEWEB-0706             
1 61611U 24188T   26187.98843680 -.00000691  00000+0 -20161-2 0  9997
2 61611  87.8822  32.3203 0002389  90.4104 269.7297 13.10374809 85972
ONEWEB-0707             
1 61612U 24188U   26187.99521976 -.00000215  00000+0 -65100-3 0  9995
2 61612  87.8829  32.3135 0002408  90.0446 270.0957 13.10374375 85911
ONEWEB-0708             
1 61613U 24188V   26187.93755085  .00000639  00000+0  17946-2 0  9992
2 61613  87.8819  32.3418 0002202  73.3445 286.7924 13.10379069 85889
