OBJECT_NAME,OBJECT_ID,EPOCH,MEAN_MOTION,ECCENTRICITY,INCLINATION,RA_OF_ASC_NODE,ARG_OF_PERICENTER,MEAN_ANOMALY,EPHEMERIS_TYPE,CLASSIFICATION_TYPE,NORAD_CAT_ID,ELEMENT_SET_NO,REV_AT_EPOCH,BSTAR,MEAN_MOTION_DOT,MEAN_MOTION_DDOT
ONEWEB-0721,2023-068R,2026-07-07T02:44:01.085280,13.22471018,.00017962,86.6755,79.1560,78.7181,281.4154,0,U,56725,999,16057,.22136438E-3,.107E-5,0
ONEWEB-0015,2024-188A,2026-07-06T23:51:24.378624,13.11414578,.00017143,87.8876,17.1483,72.7623,287.3693,0,U,61594,999,8705,.3562404E-3,.139E-5,0
ONEWEB-0687,2024-188B,2026-07-06T21:33:28.953792,13.17649613,.00021599,87.9131,1.9538,79.4610,280.6765,0,U,61595,999,8849,-.4048878E-5,.11E-6,0
ONEWEB-0688,2024-188C,2026-07-07T11:00:12.872448,13.17649886,.00016531,87.9131,1.8422,51.3466,308.7813,0,U,61596,999,8856,.11137179E-3,.56E-6,0
ONEWEB-0689,2024-188D,2026-07-07T11:39:25.661952,13.11417682,.00021424,87.8893,17.0115,86.5309,273.6064,0,U,61597,999,8711,-.10266118E-2,-.351E-5,0
ONEWEB-0690,2024-188E,2026-07-07T11:54:05.598432,13.11418051,.00013564,87.8890,17.0201,103.7819,256.3460,0,U,61598,999,8729,.22936914E-3,.94E-6,0
ONEWEB-0691,2024-188F,2026-07-07T11:46:45.697152,13.11417247,.00018495,87.8900,16.9318,76.4137,283.7197,0,U,61599,999,8714,-.33403955E-3,-.106E-5,0
ONEWEB-0692,2024-188G,2026-07-06T23:27:00.217440,13.11417365,.00025183,87.8879,17.1434,101.1487,258.9924,0,U,61600,999,8706,.1556263E-2,.564E-5,0
ONEWEB-0693,2024-188H,2026-07-07T11:17:14.231040,13.17649630,.0001167,87.9131,1.8586,106.5379,253.5881,0,U,61601,999,8855,.10533872E-3,.54E-6,0
ONEWEB-0695,2024-188J,2026-07-07T11:41:52.721664,13.11417795,.00023662,87.8880,17.0339,91.3193,268.8206,0,U,61602,999,8712,-.70182795E-3,-.236E-5,0
ONEWEB-0697,2024-188K,2026-07-06T23:39:12.675168,13.11415139,.0002443,87.8879,17.1241,102.9179,257.2222,0,U,61603,999,8704,.11994839E-2,.438E-5,0
ONEWEB-0698,2024-188L,2026-07-07T11:56:32.291808,13.11418207,.00020839,87.8879,17.0359,122.5078,237.6252,0,U,61604,999,8713,.55982398E-3,.211E-5,0
ONEWEB-0699,2024-188M,2026-07-06T23:48:13.851072,13.10371878,.00022162,87.8823,32.3198,101.3784,258.7592,0,U,61605,999,8590,-.17596679E-2,-.602E-5,0
ONEWEB-0700,2024-188N,2026-07-06T23:50:40.312032,13.10374387,.00023892,87.8840,32.2316,95.0134,265.1266,0,U,61606,999,8589,-.87188073E-3,-.292E-5,0
ONEWEB-0701,2024-188P,2026-07-07T00:15:08.888256,13.10374676,.00023655,87.8823,32.3158,104.0289,256.1102,0,U,61607,999,8590,.14609688E-2,.523E-5,0
ONEWEB-0702,2024-188Q,2026-07-06T22:23:30.478560,13.11415163,.00027796,87.8897,17.0578,100.7709,259.3732,0,U,61608,999,8707,-.13422213E-2,-.463E-5,0
ONEWEB-0704,2024-188R,2026-07-06T23:58:00.412032,13.10374673,.00027974,87.8828,32.3082,96.3428,263.8018,0,U,61609,999,8588,-.11155632E-3,-.26E-6,0
ONEWEB-0705,2024-188S,2026-07-07T00:05:21.901344,13.10376001,.0002828,87.8829,32.3130,80.3111,279.8336,0,U,61610,999,7805,.68848251E-3,.253E-5,0
ONEWEB-0706,2024-188T,2026-07-06T23:43:20.939520,13.10374809,.00023899,87.8822,32.3203,90.4104,269.7297,0,U,61611,999,8597,-.20161432E-2,-.691E-5,0
ONEWEB-0707,2024-188U,2026-07-06T23:53:06.987264,13.10374375,.00024084,87.8829,32.3135,90.0446,270.0957,0,U,61612,999,8591,-.6510017E-3,-.215E-5,0
ONEWEB-0708,2024-188V,2026-07-06T22:30:04.393440,13.10379069,.00022025,87.8819,32.3418,73.3445,286.7924,0,U,61613,999,8588,.17945947E-2,.639E-5,0
